SL-14 R/B               
1 18749U 88001B   22034.12061418  .00000260  00000+0  28696-4 0  9992
2 18749  82.5163 159.3952 0019836 132.2599  40.4559 14.83311472841260
COSMOS 1933             
1 18958U 88020A   22034.15253009  .00000573  00000+0  39226-4 0  9995
2 18958  82.5285 270.1950 0009942 286.1312  73.8820 15.04188739845780
SL-3 R/B                
1 19046U 88032B   22033.88183359  .00001688  00000+0  12734-3 0  9998
2 19046  97.3905  38.8501 0036181 340.0873  19.8939 15.03233583826394
SL-16 R/B               
1 19120U 88039B   22034.32653845  .00000121  00000+0  80180-4 0  9992
2 19120  71.0166 349.3938 0019775 116.3488 243.9671 14.19233088746463
COSMOS 1953             
1 19210U 88050A   22034.47898684  .00001324  00000+0  87280-4 0  9997
2 19210  82.5161 191.0394 0011530 236.7637 123.2486 15.06652303832515
SL-8 R/B                
1 19257U 88053B   22033.61778154  .00000061  00000+0  28956-4 0  9997
2 19257  74.0503 346.5619 0020564 181.9264 350.6483 14.37550567761801
COSMOS 1975             
1 19573U 88093A   22034.02431318  .00001368  00000+0  92931-4 0  9991
2 19573  82.5212 147.0815 0012296 293.6520  66.3416 15.05556792814239
SL-14 R/B               
1 19574U 88093B   22033.67729859  .00000256  00000+0  28175-4 0  9996
2 19574  82.5332   3.4205 0020249 301.6078 231.4539 14.83422389779102
SL-16 R/B               
1 19650U 88102B   22034.15522939  .00000153  00000+0  10209-3 0  9990
2 19650  70.9997  57.2537 0012507 134.3510 225.8640 14.15819930715477
INTERCOSMOS 24          
1 20261U 89080A   22034.17741078  .00000260  00000+0  69827-4 0  9995
2 20261  82.6055 354.6898 1202518 153.0448 213.8690 12.56263819478388
SL-14 R/B               
1 20262U 89080C   22033.77152569  .00000240  00000+0  68615-4 0  9994
2 20262  82.5909  52.5885 1236621 359.7800   0.2599 12.49012357473309
DELTA 2 R/B(1)          
1 20303U 89085B   22033.85928528  .00011268  00000+0  32340-3 0  9997
2 20303  35.6372 221.2438 0086564  83.2772 277.7799 15.31396453759780
DELTA 1 R/B             
1 20323U 89089B   22033.72100440  .00000129  00000+0  42176-4 0  9997
2 20323  97.1023  96.9333 0072280 157.5255 202.9136 14.48455113679030
ARIANE 40 R/B           
1 20443U 90005H   22034.14543851  .00000093  00000+0  45127-4 0  9993
2 20443  98.5013 103.4439 0010464  13.2707 346.8753 14.38171580677992
DELTA 2 R/B(1)          
1 20453U 90008B   22034.15439980  .00003589  00000+0  19292-3 0  9991
2 20453  35.6268 338.9280 0274179 244.4651 112.7478 14.87646485699888
COSMOS 2058             
1 20465U 90010A   22034.47471264  .00001056  00000+0  85961-4 0  9997
2 20465  82.4869  59.6621 0015091 357.9041   2.2116 14.98465555738675
SL-14 R/B               
1 20466U 90010B   22033.81328687  .00000213  00000+0  24093-4 0  9998
2 20466  82.5010 229.5682 0020491 177.4738 182.6584 14.81471100706872
SL-14 R/B               
1 20511U 90018B   22033.65306519  .00000207  00000+0  24187-4 0  9996
2 20511  82.5244 178.7726 0016637 330.1215  40.3310 14.80123800701154
HST                     
1 20580U 90037B   22034.21988451  .00001633  00000+0  87086-4 0  9998
2 20580  28.4711 337.8418 0002630  33.7783  74.8792 15.09993326546162
SL-16 R/B               
1 20625U 90046B   22033.73468282 -.00000313  00000+0 -13804-3 0  9991
2 20625  70.9976 198.7046 0012278  51.5656 308.6567 14.14680047636801
COSMOS 2084             
1 20663U 90055A   22033.58496977  .00000915  00000+0  98236-4 0  9997
2 20663  62.7946 340.5440 0102880  35.5304 325.2583 14.92462309712178
SL-6 R/B(2)             
1 20666U 90055D   22034.07343476  .00000767  00000+0  81818-4 0  9993
2 20666  62.7830 253.8028 0122248  59.1577 302.1477 14.92736297713666
SL-8 R/B                
1 20775U 90078B   22034.15582949  .00007665  00000+0  36285-3 0  9999
2 20775  82.9239  94.4169 0561744 145.6075 218.2866 14.37515276591205
SL-8 R/B                
1 21088U 91006B   22034.51089590 -.00000034  00000+0 -49046-4 0  9998
2 21088  82.9422 202.0403 0021448 261.8268 156.4198 13.77187785558524
OKEAN-3                 
1 21397U 91039A   22034.09809233  .00001091  00000+0  10150-3 0  9999
2 21397  82.5241 330.3757 0017251 341.1562  18.9018 14.93323342662209
COSMOS 2151             
1 21422U 91042A   22034.51004871  .00000549  00000+0  50976-4 0  9992
2 21422  82.4983  75.3721 0015186  46.3437 313.9039 14.92412088660852
SL-14 R/B               
1 21423U 91042B   22034.50816502  .00000202  00000+0  23642-4 0  9990
2 21423  82.4951 179.7931 0018999 105.3727 254.9587 14.79873601652853
ERS-1                   
1 21574U 91050A   22034.46421788  .00000115  00000+0  53013-4 0  9997
2 21574  98.6808   1.7886 0032261 317.5195  42.3495 14.37855627600747
ARIANE 40 R/B           
1 21610U 91050F   22034.46328706  .00000107  00000+0  46917-4 0  9990
2 21610  98.3979 106.4928 0002102 265.4431 105.4922 14.40997827603819
INTERCOSMOS 25          
1 21819U 91086A   22033.77419009  .00000545  00000+0  10248-3 0  9993
2 21819  82.5793 129.5202 1515383  83.1482 293.9019 12.05475743316001
SL-8 R/B                
1 21876U 92008B   22034.51643551  .00000053  00000+0  38968-4 0  9999
2 21876  82.9279 299.3792 0034742 352.0688 181.1427 13.75696359504058
SL-8 R/B                
1 21938U 92020B   22033.71810030  .00000112  00000+0  10072-3 0  9992
2 21938  82.9313 184.6221 0029905 150.9231 220.8760 13.75300903495498
COSMOS 2219             
1 22219U 92076A   22034.36734261  .00000141  00000+0  99223-4 0  9997
2 22219  71.0600 262.8283 0019668 319.6108  40.3553 14.13684126507357
SL-16 R/B               
1 22220U 92076B   22034.17441728 -.00000187  00000+0 -69907-4 0  9999
2 22220  71.0001  97.5406 0014440 222.5827 200.8455 14.16482738510364
COSMOS 2221             
1 22236U 92080A   22034.14001455  .00000610  00000+0  63305-4 0  9992
2 22236  82.5060 260.6836 0017400 140.0456 220.2046 14.88220410578906
SL-16 R/B               
1 22285U 92093B   22034.35584136 -.00000092  00000+0 -23066-4 0  9991
2 22285  71.0207 262.3418 0002279  41.0593 319.0701 14.15076654501912
COSMOS 2228             
1 22286U 92094A   22033.60031930  .00000771  00000+0  80264-4 0  9994
2 22286  82.5184 218.1415 0019593 263.8242  96.0744 14.88444513552965
SL-16 R/B               
1 22566U 93016B   22033.64005889 -.00000158  00000+0 -56881-4 0  9997
2 22566  71.0075 116.3874 0008010  77.6077 282.5941 14.14987790490527
COSMOS 2242             
1 22626U 93024A   22034.31000784  .00000592  00000+0  61278-4 0  9993
2 22626  82.5194 245.8495 0017358 261.8174  98.1074 14.88289555557774
SL-16 R/B               
1 22803U 93059B   22034.41520428 -.00000063  00000+0 -73300-5 0  9996
2 22803  70.9902 283.3028 0018615 322.0331  37.9479 14.16852125467972
ARIANE 40 R/B           
1 22830U 93061H   22034.46107328  .00000055  00000+0  37447-4 0  9994
2 22830  98.6833  97.4356 0011078  19.1422 341.0175 14.31511038480341
COSMOS 2278             
1 23087U 94023A   22033.83301326  .00000279  00000+0  17210-3 0  9995
2 23087  71.0526  63.1729 0008409 166.2012 193.9342 14.13842767433341
SL-16 R/B               
1 23088U 94023B   22034.11636375 -.00000130  00000+0 -42777-4 0  9998
2 23088  71.0023 330.8476 0002225 359.0343   1.0775 14.14704124434824
SL-16 R/B               
1 23343U 94074B   22034.18426225  .00000164  00000+0  30510-4 0  9993
2 23343  97.9146  89.8766 0007647  39.5079  26.9463 14.76943713466555
SL-16 R/B               
1 23405U 94077B   22033.89969249 -.00000287  00000+0 -12312-3 0  9997
2 23405  70.9813 258.4321 0005052 272.6903  87.3641 14.15248659404585
ERS-2                   
1 23560U 95021A   22034.39271299  .00003933  00000+0  16136-3 0  9993
2 23560  98.5203 281.3693 0002381 318.6172  41.4882 15.24979692432908
ARIANE 40+ R/B          
1 23561U 95021B   22034.39603804  .00000116  00000+0  53154-4 0  9997
2 23561  98.6437  91.0539 0005879 286.8135  83.7498 14.38082933404441
SL-16 R/B               
1 23705U 95058B   22034.10981654 -.00000229  00000+0 -93241-4 0  9996
2 23705  71.0215  79.1716 0014712 243.7747 116.1864 14.15160898356548
SL-16 R/B               
1 24298U 96051B   22033.89397988 -.00000052  00000+0 -15341-5 0  9994
2 24298  70.8194  94.7701 0017727 198.5164 161.5313 14.12402265310430
ORBVIEW 2 (SEASTAR)     
1 24883U 97037A   22033.60428727  .00000131  00000+0  63469-4 0  9993
2 24883  98.6623 156.6938 0003116 133.3615 226.7829 14.33670580294246
SL-16 R/B               
1 25400U 98043G   22034.43321017  .00000009  00000+0  22215-4 0  9991
2 25400  98.6625 332.1044 0010678  43.5850 316.6171 14.25494832226156
SL-16 R/B               
1 25407U 98045B   22033.85555779 -.00000247  00000+0 -10123-3 0  9999
2 25407  71.0112  86.2548 0006427 164.6352 195.4967 14.15850209215353
ISS (ZARYA)             
1 25544U 98067A   22034.72187436  .00005633  00000+0  10750-3 0  9991
2 25544  51.6450 277.5435 0006750  94.3504   8.7010 15.49753033324486
CZ-4B R/B               
1 25732U 99025C   22034.14077204 -.00000006  00000+0  19200-4 0  9992
2 25732  98.8746  75.7702 0036541 312.2632 114.7003 14.17712470176362
OKEAN-O                 
1 25860U 99039A   22034.10502485  .00000282  00000+0  47712-4 0  9993
2 25860  98.1582  72.6852 0001800 100.4908 259.6504 14.76821414213518
SL-16 R/B               
1 25861U 99039B   22034.52311675  .00000197  00000+0  34230-4 0  9995
2 25861  98.1921  59.2160 0016537  46.8135  73.2495 14.78713703215847
DELTA 2 R/B             
1 25876U 99041E   22033.72586107  .00000749  00000+0  16611-3 0  9994
2 25876  51.7678 119.9225 0530245 280.5544  73.6096 14.04747862152282
HELIOS 1B               
1 25977U 99064A   22034.51452287  .00000279  00000+0  41765-4 0  9997
2 25977  98.3215 223.2944 0000943 157.6646 202.4607 14.82646592194739
TERRA                   
1 25994U 99068A   22034.49355753  .00000176  00000+0  49001-4 0  9994
2 25994  98.1524 109.3980 0001229  91.3415 279.1461 14.57139034177111
